{
  "type": "FeatureCollection",
  "features": [
    {
      "type": "Feature",
      "properties": {
        "norad_id": 32275,
        "name": "COSMOS 2433 (720)",
        "group": "glo-ops",
        "lat": 63.19561610930095,
        "lon": 25.400019161155857,
        "alt_km": 19136.267885152407,
        "timestamp": "2025-12-20T16:47:36.547583+00:00",
        "meta_object_name": "COSMOS 2433 (720)",
        "meta_object_id": "2007-052A",
        "meta_epoch": "2025-12-19T04:33:13.000320",
        "meta_mean_motion": 2.13104199,
        "meta_eccentricity": 0.0005237,
        "meta_inclination": 65.6796,
        "meta_ra_of_asc_node": 321.9886,
        "meta_arg_of_pericenter": 255.1824,
        "meta_mean_anomaly": 104.7517,
        "meta_ephemeris_type": 0,
        "meta_classification_type": "U",
        "meta_norad_cat_id": 32275,
        "meta_element_set_no": 999,
        "meta_rev_at_epoch": 14122,
        "meta_bstar": 0,
        "meta_mean_motion_dot": -5.9e-07,
        "meta_mean_motion_ddot": 0,
        "tle_line1": "1 32275U 07052A   25353.18973380 -.00000059  00000+0  00000+0 0  9993",
        "tle_line2": "2 32275  65.6796 321.9886 0005237 255.1824 104.7517  2.13104199141226"
      },
      "geometry": {
        "type": "Point",
        "coordinates": [
          25.400019161155857,
          63.19561610930095
        ]
      }
    },
    {
      "type": "Feature",
      "properties": {
        "norad_id": 32276,
        "name": "COSMOS 2432 (719)",
        "group": "glo-ops",
        "lat": 20.796095835677235,
        "lon": -28.075776880195317,
        "alt_km": 19117.14053691371,
        "timestamp": "2025-12-20T16:47:36.547607+00:00",
        "meta_object_name": "COSMOS 2432 (719)",
        "meta_object_id": "2007-052B",
        "meta_epoch": "2025-12-20T10:16:04.130976",
        "meta_mean_motion": 2.1310343,
        "meta_eccentricity": 0.0011342,
        "meta_inclination": 65.6947,
        "meta_ra_of_asc_node": 322.0715,
        "meta_arg_of_pericenter": 314.1043,
        "meta_mean_anomaly": 220.0986,
        "meta_ephemeris_type": 0,
        "meta_classification_type": "U",
        "meta_norad_cat_id": 32276,
        "meta_element_set_no": 999,
        "meta_rev_at_epoch": 14127,
        "meta_bstar": 0,
        "meta_mean_motion_dot": -5.2e-07,
        "meta_mean_motion_ddot": 0,
        "tle_line1": "1 32276U 07052B   25354.42782559 -.00000052  00000+0  00000+0 0  9991",
        "tle_line2": "2 32276  65.6947 322.0715 0011342 314.1043 220.0986  2.13103430141275"
      },
      "geometry": {
        "type": "Point",
        "coordinates": [
          -28.075776880195317,
          20.796095835677235
        ]
      }
    },
    {
      "type": "Feature",
      "properties": {
        "norad_id": 32393,
        "name": "COSMOS 2434 (721)",
        "group": "glo-ops",
        "lat": -27.795612178821226,
        "lon": -176.76458520631607,
        "alt_km": 19136.49527251109,
        "timestamp": "2025-12-20T16:47:36.547622+00:00",
        "meta_object_name": "COSMOS 2434 (721)",
        "meta_object_id": "2007-065A",
        "meta_epoch": "2025-12-20T12:03:15.367680",
        "meta_mean_motion": 2.13101459,
        "meta_eccentricity": 0.0004781,
        "meta_inclination": 64.3153,
        "meta_ra_of_asc_node": 197.9412,
        "meta_arg_of_pericenter": 71.786,
        "meta_mean_anomaly": 105.6785,
        "meta_ephemeris_type": 0,
        "meta_classification_type": "U",
        "meta_norad_cat_id": 32393,
        "meta_element_set_no": 999,
        "meta_rev_at_epoch": 13996,
        "meta_bstar": 0,
        "meta_mean_motion_dot": 1e-06,
        "meta_mean_motion_ddot": 0,
        "tle_line1": "1 32393U 07065A   25354.50226120  .00000100  00000+0  00000+0 0  9994",
        "tle_line2": "2 32393  64.3153 197.9412 0004781  71.7860 105.6785  2.13101459139962"
      },
      "geometry": {
        "type": "Point",
        "coordinates": [
          -176.76458520631607,
          -27.795612178821226
        ]
      }
    },
    {
      "type": "Feature",
      "properties": {
        "norad_id": 32395,
        "name": "COSMOS 2436 (723)",
        "group": "glo-ops",
        "lat": 61.74197687862494,
        "lon": -45.55973225954394,
        "alt_km": 19124.975912585982,
        "timestamp": "2025-12-20T16:47:36.547635+00:00",
        "meta_object_name": "COSMOS 2436 (723)",
        "meta_object_id": "2007-065C",
        "meta_epoch": "2025-12-20T08:05:38.789664",
        "meta_mean_motion": 2.13100373,
        "meta_eccentricity": 0.0017786,
        "meta_inclination": 64.3241,
        "meta_ra_of_asc_node": 198.0173,
        "meta_arg_of_pericenter": 9.8756,
        "meta_mean_anomaly": 174.0477,
        "meta_ephemeris_type": 0,
        "meta_classification_type": "U",
        "meta_norad_cat_id": 32395,
        "meta_element_set_no": 999,
        "meta_rev_at_epoch": 13991,
        "meta_bstar": 0,
        "meta_mean_motion_dot": 1.01e-06,
        "meta_mean_motion_ddot": 0,
        "tle_line1": "1 32395U 07065C   25354.33725451  .00000101  00000+0  00000+0 0  9999",
        "tle_line2": "2 32395  64.3241 198.0173 0017786   9.8756 174.0477  2.13100373139910"
      },
      "geometry": {
        "type": "Point",
        "coordinates": [
          -45.55973225954394,
          61.74197687862494
        ]
      }
    },
    {
      "type": "Feature",
      "properties": {
        "norad_id": 36111,
        "name": "COSMOS 2456 (730)",
        "group": "glo-ops",
        "lat": 47.05487984036877,
        "lon": -133.0957845430527,
        "alt_km": 19132.680210952167,
        "timestamp": "2025-12-20T16:47:36.547647+00:00",
        "meta_object_name": "COSMOS 2456 (730)",
        "meta_object_id": "2009-070A",
        "meta_epoch": "2025-12-20T03:13:18.516576",
        "meta_mean_motion": 2.13103685,
        "meta_eccentricity": 0.00033011,
        "meta_inclination": 64.904,
        "meta_ra_of_asc_node": 77.0852,
        "meta_arg_of_pericenter": 296.9564,
        "meta_mean_anomaly": 115.2996,
        "meta_ephemeris_type": 0,
        "meta_classification_type": "U",
        "meta_norad_cat_id": 36111,
        "meta_element_set_no": 999,
        "meta_rev_at_epoch": 12461,
        "meta_bstar": 0,
        "meta_mean_motion_dot": -2.2e-07,
        "meta_mean_motion_ddot": 0,
        "tle_line1": "1 36111U 09070A   25354.13424209 -.00000022  00000+0  00000+0 0  9995",
        "tle_line2": "2 36111  64.9040  77.0852 0003301 296.9564 115.2996  2.13103685124610"
      },
      "geometry": {
        "type": "Point",
        "coordinates": [
          -133.0957845430527,
          47.05487984036877
        ]
      }
    },
    {
      "type": "Feature",
      "properties": {
        "norad_id": 36112,
        "name": "COSMOS 2457 (733)",
        "group": "glo-ops",
        "lat": -61.1196012340702,
        "lon": -45.00300759403363,
        "alt_km": 19137.21922343091,
        "timestamp": "2025-12-20T16:47:36.547659+00:00",
        "meta_object_name": "COSMOS 2457 (733)",
        "meta_object_id": "2009-070B",
        "meta_epoch": "2025-12-19T12:47:22.832160",
        "meta_mean_motion": 2.13101086,
        "meta_eccentricity": 0.0004579,
        "meta_inclination": 64.8894,
        "meta_ra_of_asc_node": 76.9529,
        "meta_arg_of_pericenter": 161.1215,
        "meta_mean_anomaly": 278.8833,
        "meta_ephemeris_type": 0,
        "meta_classification_type": "U",
        "meta_norad_cat_id": 36112,
        "meta_element_set_no": 999,
        "meta_rev_at_epoch": 12460,
        "meta_bstar": 0,
        "meta_mean_motion_dot": -2.8e-07,
        "meta_mean_motion_ddot": 0,
        "tle_line1": "1 36112U 09070B   25353.53290315 -.00000028  00000+0  00000+0 0  9994",
        "tle_line2": "2 36112  64.8894  76.9529 0004579 161.1215 278.8833  2.13101086124608"
      },
      "geometry": {
        "type": "Point",
        "coordinates": [
          -45.00300759403363,
          -61.1196012340702
        ]
      }
    },
    {
      "type": "Feature",
      "properties": {
        "norad_id": 36402,
        "name": "COSMOS 2460 (732)",
        "group": "glo-ops",
        "lat": -61.42909618326942,
        "lon": -162.78948137795416,
        "alt_km": 19130.144775290642,
        "timestamp": "2025-12-20T16:47:36.547670+00:00",
        "meta_object_name": "COSMOS 2460 (732)",
        "meta_object_id": "2010-007C",
        "meta_epoch": "2025-12-19T13:42:43.098624",
        "meta_mean_motion": 2.131063,
        "meta_eccentricity": 0.0002543,
        "meta_inclination": 65.526,
        "meta_ra_of_asc_node": 320.5423,
        "meta_arg_of_pericenter": 279.9868,
        "meta_mean_anomaly": 189.087,
        "meta_ephemeris_type": 0,
        "meta_classification_type": "U",
        "meta_norad_cat_id": 36402,
        "meta_element_set_no": 999,
        "meta_rev_at_epoch": 12290,
        "meta_bstar": 0,
        "meta_mean_motion_dot": -5.7e-07,
        "meta_mean_motion_ddot": 0,
        "tle_line1": "1 36402U 10007C   25353.57133216 -.00000057  00000+0  00000+0 0  9990",
        "tle_line2": "2 36402  65.5260 320.5423 0002543 279.9868 189.0870  2.13106300122906"
      },
      "geometry": {
        "type": "Point",
        "coordinates": [
          -162.78948137795416,
          -61.42909618326942
        ]
      }
    }
  ]
}